66P/duToit,e,18.6493,21.8294,257.3826,6.066630,0.0659603,0.78671569,74.7270,06/25.0/2021,2000,g 15.0,4.0
# From MPC 89011
67P/Churyumov-Gerasimenko,e,3.8712,36.3359,22.1223,3.457274,0.1533216,0.64982809,340.0614,06/25.0/2021,2000,g 11.0,4.0
# From MPC 75716
68P/Klemola,e,11.1103,175.0616,153.1386,4.953571,0.0893977,0.63764708,53.0896,06/25.0/2021,2000,g 10.0,4.0
# From MPC114607
69P/Taylor,e,22.0340,104.8254,343.4457,3.887359,0.1285944,0.41311181,106.7198,06/25.0/2021,2000,g  9.5,12.0
# From MPEC 2021-BE3
70P/Kojima,e,6.5982,119.2688,1.8374,3.676955,0.1397885,0.45363213,341.6678,06/25.0/2021,2000,g 11.0,6.0
# From MPC107051
71P/Clark,e,9.4380,59.4162,209.0508,3.138325,0.1772789,0.49394568,257.9699,06/25.0/2021,2000,g  9.8,6.0
# From MPC 89011
72P/Denning-Fujikawa,e,10.9417,26.6918,346.6891,4.310710,0.1101237,0.81841659,280.6021,06/25.0/2021,2000,g 17.5,10.0
# From MPC106348
73P/Schwassmann-Wachmann,e,11.2290,69.6291,199.4684,3.092890,0.1811997,0.68551679,282.6920,06/25.0/2021,2000,g 11.5,6.0
# From MPC106348
73P-T/Schwassmann-Wachmann,e,11.2311,69.6317,199.4499,3.094453,0.1810624,0.68571930,282.4790,06/25.0/2021,2000,g 11.5,6.0
# From MPEC 2021-BE3
74P/Smirnova-Chernykh,e,6.1584,72.0619,106.6826,4.322900,0.1096582,0.14786309,126.5072,06/25.0/2021,2000,g  5.0,6.0
# From MPEC 2021-F20
76P/West-Kohoutek-Ikemura,e,30.4599,84.1160,359.9687,3.472590,0.1523084,0.53813435,92.5957,06/25.0/2021,2000,g 15.5,4.0
# From MPC100283
77P/Longmore,e,24.3190,14.7810,196.8331,3.621901,0.1429879,0.35202676,267.4380,06/25.0/2021,2000,g  7.0,8.0
# From MPEC 2016-U66
78P/Gehrels,e,6.2515,210.5190,192.6287,3.738758,0.1363368,0.46207373,111.0040,06/25.0/2021,2000,g  9.0,4.0
# From MPC 94675
79P/du Toit-Hartley,e,3.1479,280.5320,281.7971,2.942921,0.1952253,0.61884261,198.4027,06/25.0/2021,2000,g 16.0,4.0
# From MPEC 2014-P41
80P/Peters-Hartley,e,29.9302,259.8157,339.2517,4.024358,0.1220841,0.59880213,295.0744,06/25.0/2021,2000,g  9.0,4.0
# From MPC105241
81P/Wild,e,3.2368,136.0981,41.6793,3.451701,0.1536931,0.53704574,277.1984,06/25.0/2021,2000,g  7.0,6.0
# From MPEC 2020-FB5
84P/Giclas,e,7.5518,108.1734,281.5734,3.549098,0.1474100,0.51572789,56.9201,06/25.0/2021,2000,g  9.5,8.0
# From MPC109147
86P/Wild,e,15.4742,72.3597,179.3810,3.602347,0.1441537,0.37241920,327.2004,06/25.0/2021,2000,g 11.0,6.0
# From MPEC 2020-SI8
87P/Bus,e,2.6067,181.7447,25.2508,3.445604,0.1541012,0.39028832,63.3376,06/25.0/2021,2000,g  7.2,10.0
# From MPEC 2021-F20
88P/Howell,e,4.3837,56.6796,235.9043,3.105021,0.1801388,0.56422870,48.8940,06/25.0/2021,2000,g 12.4,4.0
# From MPC100283
89P/Russell,e,12.0693,41.3797,250.3445,3.753950,0.1355100,0.40857665,223.8134,06/25.0/2021,2000,g 11.5,6.0
# From MPC107051
90P/Gehrels,e,9.6469,13.2056,29.0645,6.052680,0.0661885,0.51014792,97.0703,06/25.0/2021,2000,g  8.5,6.0
# From MPC105241
91P/Russell,e,14.0859,247.8113,354.8816,3.894412,0.1282452,0.33124641,29.1562,06/25.0/2021,2000,g  7.5,6.0
# From MPEC 2014-J58
92P/Sanguin,e,19.4966,181.3687,163.7517,5.344322,0.0797747,0.66092021,183.8384,06/25.0/2021,2000,g 12.0,6.0
# From NK 2707
93P/Lovas,e,12.2034,339.6467,74.8120,4.382741,0.1074201,0.61259689,169.4032,06/25.0/2021,2000,g  9.0,4.0
# From MPEC 2020-W26
94P/Russell,e,6.1880,70.8585,92.4619,3.507370,0.1500485,0.36491016,255.6534,06/25.0/2021,2000,g  9.0,6.0
# From MPC 75717
95P/Chiron,e,6.9300,209.2743,339.7090,13.70072,0.0194352,0.37724603,180.5755,06/25.0/2021,2000,g  6.5,2.0
# From MPEC 2017-T14
96P/Machholz,e,57.5825,93.9947,14.7403,3.028269,0.1870304,0.96158798,250.5437,06/25.0/2021,2000,g  9.0,4.0
# From MPC 77020
97P/Metcalf-Brewington,e,17.9483,184.0773,229.9156,4.763571,0.0947993,0.46038566,337.6897,06/25.0/2021,2000,g  5.5,6.0
# From MPEC 2013-H38
98P/Takamizawa,e,10.5605,114.7086,157.8980,3.799821,0.1330637,0.56241604,22.7679,06/25.0/2021,2000,g  9.0,8.0
# From MPEC 2021-L04
99P/Kowal,e,4.3389,28.1059,174.9623,6.109480,0.0652676,0.22973524,340.9471,06/25.0/2021,2000,g  4.5,6.0
# From MPEC 2013-O31
100P/Hartley,e,25.5650,37.6991,181.9894,3.432373,0.1549931,0.41232381,296.1458,06/25.0/2021,2000,g  9.0,4.0
# From MPEC 2020-FB5
101P/Chernykh,e,5.0527,116.2288,277.7042,5.803188,0.0705024,0.59596883,37.3223,06/25.0/2021,2000,g 10.0,4.8
# From MPC 86232
102P/Shoemaker,e,25.8849,339.3660,20.5454,3.812743,0.1323877,0.45709091,20.3342,06/25.0/2021,2000,g  6.5,8.0
# From MPEC 2018-HA5
103P/Hartley,e,13.6015,219.7321,181.2829,3.476099,0.1520778,0.69325950,232.2798,06/25.0/2021,2000,g  8.5,8.0
# From MPC100283
104P/Kowal,e,5.7196,207.3929,227.1170,3.207436,0.1715801,0.66551912,325.6636,06/25.0/2021,2000,g 16.0,4.0
# From MPC109147
105P/Singer Brewster,e,9.1704,192.4114,46.4860,3.467412,0.1526497,0.40945236,160.3439,06/25.0/2021,2000,g 11.5,6.0
# From MPC 92276
106P/Schuster,e,19.5363,48.8863,353.6646,3.762360,0.1350559,0.59370287,352.6037,06/25.0/2021,2000,g 14.0,4.8
# From MPEC 2015-M77
107P/Wilson-Harrington,e,2.7987,266.7909,95.4096,2.625211,0.2317169,0.63157685,261.3580,06/25.0/2021,2000,g  9.0,4.0
# From MPC 89313
108P/Ciffreo,e,11.4372,50.2924,354.4117,3.738352,0.1363590,0.55587864,349.4895,06/25.0/2021,2000,g  8.0,12.0
# From  105, 420
109P/Swift-Tuttle,e,113.9909,139.0362,152.9153,26.14275,0.0073736,0.96285553,76.9130,06/25.0/2021,2000,g  4.0,6.0
# From MPEC 2020-W26
110P/Hartley,e,11.7072,287.5346,167.4527,3.601418,0.1442094,0.31812852,343.3681,06/25.0/2021,2000,g  1.0,12.0
# From MPC 75718
111P/Helin-Roman-Crockett,e,4.2269,89.7667,0.9955,4.147308,0.1166957,0.10601387,1.0895,06/25.0/2021,2000,g  5.0,8.0
# From MPEC 2021-F20
112P/Urata-Niijima,e,24.1963,31.8355,21.4830,3.525619,0.1488850,0.58990626,74.8901,06/25.0/2021,2000,g 15.3,4.0
# From MPEC 2015-E14
113P/Spitaler,e,5.2938,306.7043,115.3733,3.698640,0.1385610,0.42085456,312.7502,06/25.0/2021,2000,g 13.5,4.0
# From MPEC 2021-J28
114P/Wiseman-Skiff,e,18.2734,271.0501,172.7727,3.545263,0.1476493,0.55475698,77.9536,06/25.0/2021,2000,g 11.5,6.0
# From MPEC 2020-SI8
115P/Maury,e,11.6777,176.0103,120.9762,4.272236,0.1116147,0.51858455,36.8763,06/25.0/2021,2000,g 10.5,6.0
# From MPC106348
116P/Wild,e,3.6034,20.9845,173.3369,3.489882,0.1511778,0.37062712,301.4908,06/25.0/2021,2000,g  2.5,10.0
# From MPEC 2021-F20
117P/Helin-Roman-Alu,e,8.7027,58.8425,222.8540,4.084602,0.1193931,0.25569314,314.9441,06/25.0/2021,2000,g 10.8,4.0
# From MPC 95735
118P/Shoemaker-Levy,e,10.0944,142.1124,314.4413,3.360625,0.1599831,0.45505662,277.4585,06/25.0/2021,2000,g 12.0,4.0
# From MPC 84628
119P/Parker-Hartley,e,7.4007,104.6675,321.7475,3.816097,0.1322132,0.38987878,305.5187,06/25.0/2021,2000,g  3.5,8.0
# From MPEC 2020-SI8
120P/Mueller,e,8.4900,358.6742,36.5627,3.961460,0.1250032,0.37450524,6.1054,06/25.0/2021,2000,g 12.0,4.0
# From MPEC 2020-SI8
121P/Shoemaker-Holt,e,20.1630,94.1264,11.3883,4.584663,0.1004021,0.18565763,286.4730,06/25.0/2021,2000,g  6.5,8.0
# From MPC 75718
122P/de Vico,e,84.9391,79.5586,13.0063,17.62658,0.0133184,0.96225532,125.4473,06/25.0/2021,2000,g  7.5,5.2
# From MPEC 2021-F20
123P/West-Hartley,e,15.2912,46.1501,103.8811,3.874510,0.1292346,0.44689985,112.5839,06/25.0/2021,2000,g 12.2,4.0
# From MPEC 2021-F20
124P/Mrkos,e,31.5261,0.3197,184.0023,3.321255,0.1628361,0.50348921,69.0370,06/25.0/2021,2000,g 15.2,4.0
# From MPEC 2015-M77
125P/Spacewatch,e,9.9866,153.1489,87.2397,3.125966,0.1783314,0.51265203,184.1436,06/25.0/2021,2000,g  9.0,4.0
# From MPC 66205
126P/IRAS,e,45.8704,357.8641,356.5272,5.639766,0.0735889,0.69629295,305.5199,06/25.0/2021,2000,g  9.0,4.0
# From MPC 84321
127P/Holt-Olmstead,e,14.2964,13.6328,6.4590,3.451681,0.1536944,0.35990972,296.6752,06/25.0/2021,2000,g 11.0,6.0
# From MPC 89014
128P/Shoemaker-Holt,e,4.3677,214.2988,210.2995,4.492037,0.1035235,0.32078091,168.5066,06/25.0/2021,2000,g  8.5,4.0
# From MPEC 2019-TG9
129P/Shoemaker-Levy,e,3.4423,184.8806,307.7990,4.283644,0.1111691,0.08405942,301.5330,06/25.0/2021,2000,g 11.0,4.0
# From MPC 78188
130P/McNaught-Hughes,e,6.0627,70.2241,246.0139,3.383790,0.1583431,0.46136943,197.8136,06/25.0/2021,2000,g 10.0,6.0
# From MPC102101
131P/Mueller,e,7.3556,214.1564,179.0262,3.680597,0.1395811,0.34396027,123.1993,06/25.0/2021,2000,g 11.0,4.0
# From MPEC 2020-HN5
132P/Helin-Roman-Alu,e,5.3819,173.9994,216.3439,3.888056,0.1285598,0.56488671,341.8560,06/25.0/2021,2000,g 11.0,6.0
# From MPC 94676
133P/Elst-Pizarro,e,1.3892,160.1071,131.8378,3.164785,0.1750603,0.15691593,176.3166,06/25.0/2021,2000,g 15.4,2.0
# From MPC 89012
134P/Kowal-Vavrova,e,4.3395,202.0718,18.8879,6.260518,0.0629200,0.58599736,163.2329,06/25.0/2021,2000,g 11.5,4.0
# From MPEC 2021-F20
135P/Shoemaker-Levy,e,6.0620,213.0281,22.2996,3.803010,0.1328963,0.29526433,321.9584,06/25.0/2021,2000,g  7.0,8.0
# From MPEC 2020-W26
136P/Mueller,e,9.4244,137.4487,224.9079,4.193278,0.1147820,0.29280092,212.2416,06/25.0/2021,2000,g 11.0,4.0
# From MPEC 2021-J28
137P/Shoemaker-Levy,e,4.8539,233.0283,141.0374,4.520615,0.1025434,0.57353394,94.7738,06/25.0/2021,2000,g 11.0,4.0
# From MPEC 2016-U66
138P/Shoemaker-Levy,e,10.0909,309.3299,95.5433,3.622101,0.1429760,0.53055107,112.1075,06/25.0/2021,2000,g 15.0,6.0
# From MPEC 2020-HN5
139P/Vaisala-Oterma,e,2.3341,242.1711,165.7225,4.522451,0.1024810,0.24682407,132.5461,06/25.0/2021,2000,g  9.5,4.0
# From MPEC 2015-E14
140P/Bowell-Skiff,e,3.8344,343.2741,172.8681,6.429142,0.0604609,0.69155835,130.0341,06/25.0/2021,2000,g 11.5,6.0
# From MPEC 2021-AJ0
141P/Machholz,e,13.9449,241.8442,153.5497,3.057286,0.1843741,0.73574854,35.1628,06/25.0/2021,2000,g 14.7,4.0
# From MPC 71683
142P/Ge-Wang,e,12.2510,175.9327,173.9481,5.001662,0.0881115,0.49755607,3.8244,06/25.0/2021,2000,g  9.0,4.0
# From MPEC 2021-BE3
143P/Kowal-Mrkos,e,4.6981,245.2208,320.3936,4.282101,0.1112292,0.41080321,127.5427,06/25.0/2021,2000,g 13.5,2.0
# From MPC104795
144P/Kushida,e,3.9401,243.2803,216.2681,3.819472,0.1320380,0.63615363,235.2730,06/25.0/2021,2000,g  8.5,8.0
# From MPC108598
145P/Shoemaker-Levy,e,11.2729,26.7881,10.2420,4.138499,0.1170684,0.54146277,163.0336,06/25.0/2021,2000,g 13.5,4.0
# From MPC100284
